CZ-4B R/B               
1 28059U 03049C   18356.80366734  .00000015  00000-0  15465-4 0  9991
2 28059  98.5056 256.8056 0050162 358.5808  41.5613 14.52547660804059
CZ-2C R/B               
1 28222U 04012C   18357.52431354  .00000520  00000-0  35247-4 0  9996
2 28222  97.6020 311.5253 0049253  85.8301  49.2663 15.09916645804244
SL-16 R/B               
1 28353U 04021B   18356.48587241  .00000196  00000-0  12786-3 0  9993
2 28353  71.0000 358.0782 0002965  75.7988 284.3464 14.14211053750386
CZ-2C R/B               
1 28480U 04046B   18356.85927235  .00000011  00000-0  19329-4 0  9990
2 28480  98.1574  61.5169 0142526  30.4363  99.5112 14.25689135733100
ARIANE 5 R/B            
1 28499U 04049H   18357.34573135  .00000039  00000-0  12377-4 0  9990
2 28499  98.0557  87.6571 0091375 224.8201 175.2591 14.79938558755956
CZ-2D R/B               
1 28738U 05024B   18356.66121901  .00000189  00000-0  14788-4 0  9998
2 28738  97.4344  25.6538 0010518 256.0236 103.9825 15.11686102739399
SUZAKU (ASTRO-EII)      
1 28773U 05025A   18356.91443818  .00000768  00000-0  33711-4 0  9990
2 28773  31.3832 302.4596 0004584 152.0828 208.0065 15.16839983741494
ALOS (DAICHI)           
1 28931U 06002A   18357.46699368  .00000173  00000-0  42661-4 0  9990
2 28931  97.8158   1.0554 0001937  37.4048 322.7315 14.62563596688477
H-2A R/B                
1 28932U 06002B   18356.91053677  .00000317  00000-0  35740-4 0  9997
2 28932  98.2567 308.6541 0088102 297.6874 127.5071 14.91864175700244
AKARI (ASTRO-F)         
1 28939U 06005A   18357.53728381  .00002050  00000-0  60209-4 0  9991
2 28939  98.1922 262.7286 0100771  58.2035 302.8970 15.31663089697896
RESURS-DK 1             
1 29228U 06021A   18357.55276299  .00000060  00000-0  11906-4 0  9998
2 29228  69.9353 127.3745 0006943 235.0581 124.9928 15.02389278691359
GENESIS 1               
1 29252U 06029A   18356.90055671  .00000174  00000-0  18846-4 0  9996
2 29252  64.5036 275.8851 0051827 270.1028  89.4156 15.17526865685755
CZ-4B R/B               
1 29507U 06046C   18356.65978206  .00001001  00000-0  82889-4 0  9996
2 29507  97.7771   9.4735 0047204 186.3994 173.6633 15.00385195664022
CZ-2C R/B               
1 31114U 07010B   18356.75699646  .00000038  00000-0  36331-4 0  9994
2 31114  98.3353 233.8182 0060632  47.9930 312.6388 14.19284234606022
COSMO-SKYMED 1          
1 31598U 07023A   18357.50300478  .00000051  00000-0  12922-4 0  9995
2 31598  97.8840 178.3876 0001282  85.9023 274.2336 14.82152681624551
GENESIS 2               
1 31789U 07028A   18357.41713273  .00000428  00000-0  31894-4 0  9990
2 31789  64.5039 314.2408 0037472 307.9800  51.7939 15.16758832632943
COSMOS 2428             
1 31792U 07029A   18357.36770935 -.00000231  00000-0 -98987-4 0  9997
2 31792  70.9640 330.1708 0008758 175.3429 184.7775 14.12542843592325
SL-16 R/B               
1 31793U 07029B   18356.91306566  .00000281  00000-0  17165-3 0  9994
2 31793  70.9761 306.0260 0002068 278.1579 144.7505 14.14409116592976
KORONAS-FOTON           
1 33504U 09003A   18357.54457011  .00000687  00000-0  34664-4 0  9996
2 33504  82.4424  41.8893 0019066 358.5988   1.5187 15.15307428545419
H-2A R/B                
1 38341U 12025E   18356.84552276  .00000144  00000-0  24455-4 0  9994
2 38341  98.4326 109.2954 0055905 175.6091 184.5624 14.83830417356896
CUSAT 2 & FALCON 9 R/B  
1 39271U 13055G   18356.84620351  .00003340  00000-0  82495-4 0  9990
2 39271  80.9679 128.4866 0607750 356.2617   3.4123 14.43337601272335
ALOS-2                  
1 39766U 14029A   18357.56910938 -.00000179  00000-0 -17077-4 0  9997
2 39766  97.9225  91.9488 0001509  83.6767 276.4617 14.79469575247573
SL-27 R/B               
1 40354U 14084B   18356.74424439  .00000785  00000-0  20895-4 0  9991
2 40354  74.7392  70.1664 0038130 175.3856 184.7716 15.39428104225004
ASTRO-H (HITOMI)        
1 41337U 16012A   18356.82190576  .00000204  00000-0  96677-5 0  9995
2 41337  31.0042 209.8845 0012280 109.6916 250.5044 14.98533150156035
TIANGONG-2              
1 41765U 16057A   18357.53195602  .00003760  00000-0  49280-4 0  9990
2 41765  42.7856 293.9585 0006238 136.8010 190.7551 15.60284298129584
SHENZHOU-11 MODULE      
1 41868U 16061G   18356.80567381  .00010511  00000-0  68884-4 0  9998
2 41868  42.7933 245.8808 0004897 248.6670 189.1658 15.75857457120008
